{
    "links": {
        "self": "http://www.neowsapp.com/rest/v1/neo/3441090?api_key=iIulBulltgU6a56xZRHN4H3l9WmuAYTsLGpBGhQ2"
    },
    "id": "3441090",
    "neo_reference_id": "3441090",
    "name": "(2008 XO)",
    "designation": "2008 XO",
    "nasa_jpl_url": "http://ssd.jpl.nasa.gov/sbdb.cgi?sstr=3441090",
    "absolute_magnitude_h": 24.2,
    "estimated_diameter": {
        "kilometers": {
            "estimated_diameter_min": 0.0384197891,
            "estimated_diameter_max": 0.0859092601
        },
        "meters": {
            "estimated_diameter_min": 38.4197891064,
            "estimated_diameter_max": 85.9092601232
        },
        "miles": {
            "estimated_diameter_min": 0.0238729428,
            "estimated_diameter_max": 0.0533815229
        },
        "feet": {
            "estimated_diameter_min": 126.0491808919,
            "estimated_diameter_max": 281.8545369825
        }
    },
    "is_potentially_hazardous_asteroid": false,
    "close_approach_data": [
        {
            "close_approach_date": "2008-11-17",
            "close_approach_date_full": "2008-Nov-17 17:45",
            "epoch_date_close_approach": 1226943900000,
            "relative_velocity": {
                "kilometers_per_second": "7.5215750311",
                "kilometers_per_hour": "27077.6701120768",
                "miles_per_hour": "16825.0111871402"
            },
            "miss_distance": {
                "astronomical": "0.0574919162",
                "lunar": "22.3643554018",
                "kilometers": "8600668.205738494",
                "miles": "5344207.4088554572"
            },
            "orbiting_body": "Earth"
        }
    ],
    "orbital_data": {
        "orbit_id": "9",
        "orbit_determination_date": "2017-04-06 09:01:59",
        "first_observation_date": "2008-12-02",
        "last_observation_date": "2008-12-11",
        "data_arc_in_days": 9,
        "observations_used": 15,
        "orbit_uncertainty": "9",
        "minimum_orbit_intersection": ".04233",
        "jupiter_tisserand_invariant": "3.678",
        "epoch_osculation": "2454804.5",
        "eccentricity": ".4882404083473462",
        "semi_major_axis": "2.000919960699576",
        "inclination": "5.185355195428419",
        "ascending_node_longitude": "240.6900131521989",
        "orbital_period": "1033.815410977142",
        "perihelion_distance": "1.023989982017259",
        "perihelion_argument": "158.535562525142",
        "aphelion_distance": "2.977849939381893",
        "perihelion_time": "2454775.607561779225",
        "mean_anomaly": "10.06105891732443",
        "mean_motion": ".3482246406635929",
        "equinox": "J2000",
        "orbit_class": {
            "orbit_class_type": "AMO",
            "orbit_class_description": "Near-Earth asteroid orbits similar to that of 1221 Amor",
            "orbit_class_range": "1.017 AU < q (perihelion) < 1.3 AU"
        }
    },
    "is_sentry_object": false
}